{
    "links": {
        "self": "http://www.neowsapp.com/rest/v1/neo/3736394?api_key=iIulBulltgU6a56xZRHN4H3l9WmuAYTsLGpBGhQ2"
    },
    "id": "3736394",
    "neo_reference_id": "3736394",
    "name": "(2015 XB169)",
    "designation": "2015 XB169",
    "nasa_jpl_url": "http://ssd.jpl.nasa.gov/sbdb.cgi?sstr=3736394",
    "absolute_magnitude_h": 24.5,
    "estimated_diameter": {
        "kilometers": {
            "estimated_diameter_min": 0.0334622374,
            "estimated_diameter_max": 0.0748238376
        },
        "meters": {
            "estimated_diameter_min": 33.4622374455,
            "estimated_diameter_max": 74.8238376074
        },
        "miles": {
            "estimated_diameter_min": 0.0207924639,
            "estimated_diameter_max": 0.0464933628
        },
        "feet": {
            "estimated_diameter_min": 109.7842471007,
            "estimated_diameter_max": 245.4850393757
        }
    },
    "is_potentially_hazardous_asteroid": false,
    "close_approach_data": [
        {
            "close_approach_date": "1956-12-27",
            "close_approach_date_full": "1956-Dec-27 02:10",
            "epoch_date_close_approach": -410651400000,
            "relative_velocity": {
                "kilometers_per_second": "5.4564072495",
                "kilometers_per_hour": "19643.0660982292",
                "miles_per_hour": "12205.4373764247"
            },
            "miss_distance": {
                "astronomical": "0.1975574546",
                "lunar": "76.8498498394",
                "kilometers": "29554174.410781702",
                "miles": "18364112.4236514076"
            },
            "orbiting_body": "Earth"
        },
        {
            "close_approach_date": "2004-12-27",
            "close_approach_date_full": "2004-Dec-27 03:27",
            "epoch_date_close_approach": 1104118020000,
            "relative_velocity": {
                "kilometers_per_second": "7.5262448931",
                "kilometers_per_hour": "27094.4816149885",
                "miles_per_hour": "16835.4572012688"
            },
            "miss_distance": {
                "astronomical": "0.2918304765",
                "lunar": "113.5220553585",
                "kilometers": "43657217.685485055",
                "miles": "27127337.158421559"
            },
            "orbiting_body": "Earth"
        },
        {
            "close_approach_date": "2015-12-28",
            "close_approach_date_full": "2015-Dec-28 20:28",
            "epoch_date_close_approach": 1451334480000,
            "relative_velocity": {
                "kilometers_per_second": "5.1937121078",
                "kilometers_per_hour": "18697.3635880535",
                "miles_per_hour": "11617.8146139214"
            },
            "miss_distance": {
                "astronomical": "0.2032981973",
                "lunar": "79.0829987497",
                "kilometers": "30412977.290919751",
                "miles": "18897747.7883685238"
            },
            "orbiting_body": "Earth"
        },
        {
            "close_approach_date": "2063-12-28",
            "close_approach_date_full": "2063-Dec-28 18:34",
            "epoch_date_close_approach": 2966092440000,
            "relative_velocity": {
                "kilometers_per_second": "6.5978181528",
                "kilometers_per_hour": "23752.1453500279",
                "miles_per_hour": "14758.659425966"
            },
            "miss_distance": {
                "astronomical": "0.2446820342",
                "lunar": "95.1813113038",
                "kilometers": "36603911.143587154",
                "miles": "22744615.7027805652"
            },
            "orbiting_body": "Earth"
        },
        {
            "close_approach_date": "2074-12-29",
            "close_approach_date_full": "2074-Dec-29 05:45",
            "epoch_date_close_approach": 3313287900000,
            "relative_velocity": {
                "kilometers_per_second": "5.1242559475",
                "kilometers_per_hour": "18447.3214109041",
                "miles_per_hour": "11462.4481289031"
            },
            "miss_distance": {
                "astronomical": "0.2315422429",
                "lunar": "90.0699324881",
                "kilometers": "34638226.352862623",
                "miles": "21523195.8118172774"
            },
            "orbiting_body": "Earth"
        }
    ],
    "orbital_data": {
        "orbit_id": "9",
        "orbit_determination_date": "2017-04-06 08:30:02",
        "first_observation_date": "2015-12-06",
        "last_observation_date": "2016-01-11",
        "data_arc_in_days": 36,
        "observations_used": 25,
        "orbit_uncertainty": "6",
        "minimum_orbit_intersection": ".197455",
        "jupiter_tisserand_invariant": "3.336",
        "epoch_osculation": "2459000.5",
        "eccentricity": ".5105332634377501",
        "semi_major_axis": "2.383578335010198",
        "inclination": "7.700690660708364",
        "ascending_node_longitude": "249.3401579305524",
        "orbital_period": "1344.134012820071",
        "perihelion_distance": "1.166682308977923",
        "perihelion_argument": "213.9167441097269",
        "aphelion_distance": "3.600474361042473",
        "perihelion_time": "2458738.252042083856",
        "mean_anomaly": "70.23798516320228",
        "mean_motion": ".2678304369701196",
        "equinox": "J2000",
        "orbit_class": {
            "orbit_class_type": "AMO",
            "orbit_class_description": "Near-Earth asteroid orbits similar to that of 1221 Amor",
            "orbit_class_range": "1.017 AU < q (perihelion) < 1.3 AU"
        }
    },
    "is_sentry_object": false
}